ADRAS-J                 
1 58992U 24034A   26068.91589465  .00004016  00000+0  21471-3 0  9993
2 58992  98.2230  88.3954 0075813  99.4078 261.5731 15.13266815112352
STARLINK-32407          
1 62172U 24225K   26068.67297527  .00002305  00000+0  20092-3 0  9995
2 62172  70.0020 164.4508 0003365 268.8788  91.1985 14.98330777 69873
