[{"OBJECT_NAME":"ADRAS-J","OBJECT_ID":"2024-034A","EPOCH":"2026-03-09T21:58:53.298624","MEAN_MOTION":15.13266815,"ECCENTRICITY":0.00758128,"INCLINATION":98.223,"RA_OF_ASC_NODE":88.3954,"ARG_OF_PERICENTER":99.4078,"MEAN_ANOMALY":261.5731,"EPHEMERIS_TYPE":0,"CLASSIFICATION_TYPE":"U","NORAD_CAT_ID":58992,"ELEMENT_SET_NO":999,"REV_AT_EPOCH":11235,"BSTAR":0.00021470617,"MEAN_MOTION_DOT":4.016e-5,"MEAN_MOTION_DDOT":0},{"OBJECT_NAME":"STARLINK-32407","OBJECT_ID":"2024-225K","EPOCH":"2026-03-09T16:09:05.063328","MEAN_MOTION":14.98330777,"ECCENTRICITY":0.00033654,"INCLINATION":70.002,"RA_OF_ASC_NODE":164.4508,"ARG_OF_PERICENTER":268.8788,"MEAN_ANOMALY":91.1985,"EPHEMERIS_TYPE":0,"CLASSIFICATION_TYPE":"U","NORAD_CAT_ID":62172,"ELEMENT_SET_NO":999,"REV_AT_EPOCH":6987,"BSTAR":0.00020091653,"MEAN_MOTION_DOT":2.305e-5,"MEAN_MOTION_DDOT":0}]
